[{"OBJECT_NAME":"OBJECT V","OBJECT_ID":"2025-155V","EPOCH":"2026-03-09T20:35:20.067360","MEAN_MOTION":15.27583301,"ECCENTRICITY":0.00080353,"INCLINATION":97.4485,"RA_OF_ASC_NODE":37.249,"ARG_OF_PERICENTER":152.8264,"MEAN_ANOMALY":207.3397,"EPHEMERIS_TYPE":0,"CLASSIFICATION_TYPE":"U","NORAD_CAT_ID":64895,"ELEMENT_SET_NO":999,"REV_AT_EPOCH":6557,"BSTAR":0.00051002361,"MEAN_MOTION_DOT":0.00013705,"MEAN_MOTION_DDOT":0},{"OBJECT_NAME":"STARLINK-36420","OBJECT_ID":"2026-003P","EPOCH":"2026-03-09T12:00:46.948032","MEAN_MOTION":15.27592799,"ECCENTRICITY":0.00015663,"INCLINATION":43.0005,"RA_OF_ASC_NODE":228.245,"ARG_OF_PERICENTER":255.7732,"MEAN_ANOMALY":104.2945,"EPHEMERIS_TYPE":0,"CLASSIFICATION_TYPE":"U","NORAD_CAT_ID":67347,"ELEMENT_SET_NO":999,"REV_AT_EPOCH":879,"BSTAR":0.0010183321,"MEAN_MOTION_DOT":0.00027877,"MEAN_MOTION_DDOT":0}]
